CCSDS_OMM_VERS = 2.0
CREATION_DATE  = 
ORIGINATOR     = 

OBJECT_NAME    = COSMOS 2550
OBJECT_ID      = 2021-056A
CENTER_NAME    = EARTH
REF_FRAME      = TEME
TIME_SYSTEM    = UTC
MEAN_ELEMENT_THEORY = SGP/SGP4

EPOCH          = 2025-11-06T20:41:07.239840
MEAN_MOTION    = 15.33830826
ECCENTRICITY   = .0008316
INCLINATION    = 67.1419
RA_OF_ASC_NODE = 52.5114
ARG_OF_PERICENTER = 271.3921
MEAN_ANOMALY   = 88.6281

EPHEMERIS_TYPE = 0
CLASSIFICATION_TYPE = U
NORAD_CAT_ID   = 48865
ELEMENT_SET_NO = 999
REV_AT_EPOCH   = 24462
BSTAR          = .95945E-5
MEAN_MOTION_DOT = .124E-5
MEAN_MOTION_DDOT = 0

CCSDS_OMM_VERS = 2.0
CREATION_DATE  = 
ORIGINATOR     = 

OBJECT_NAME    = CZ-2C R/B
OBJECT_ID      = 2022-058K
CENTER_NAME    = EARTH
REF_FRAME      = TEME
TIME_SYSTEM    = UTC
MEAN_ELEMENT_THEORY = SGP/SGP4

EPOCH          = 2025-11-06T18:29:04.072128
MEAN_MOTION    = 15.45984816
ECCENTRICITY   = .004956
INCLINATION    = 50.1923
RA_OF_ASC_NODE = 226.6440
ARG_OF_PERICENTER = 48.7546
MEAN_ANOMALY   = 311.7676

EPHEMERIS_TYPE = 0
CLASSIFICATION_TYPE = U
NORAD_CAT_ID   = 52794
ELEMENT_SET_NO = 999
REV_AT_EPOCH   = 19106
BSTAR          = .75564E-3
MEAN_MOTION_DOT = .39084E-3
MEAN_MOTION_DDOT = 0

CCSDS_OMM_VERS = 2.0
CREATION_DATE  = 
ORIGINATOR     = 

OBJECT_NAME    = GSLV R/B
OBJECT_ID      = 2022-138AN
CENTER_NAME    = EARTH
REF_FRAME      = TEME
TIME_SYSTEM    = UTC
MEAN_ELEMENT_THEORY = SGP/SGP4

EPOCH          = 2025-11-06T16:01:52.000608
MEAN_MOTION    = 14.95831105
ECCENTRICITY   = .0019315
INCLINATION    = 87.3859
RA_OF_ASC_NODE = 207.5449
ARG_OF_PERICENTER = 235.3420
MEAN_ANOMALY   = 124.5991

EPHEMERIS_TYPE = 0
CLASSIFICATION_TYPE = U
NORAD_CAT_ID   = 54149
ELEMENT_SET_NO = 999
REV_AT_EPOCH   = 16553
BSTAR          = .46958E-3
MEAN_MOTION_DOT = .5288E-4
MEAN_MOTION_DDOT = 0

CCSDS_OMM_VERS = 2.0
CREATION_DATE  = 
ORIGINATOR     = 

OBJECT_NAME    = XRISM
OBJECT_ID      = 2023-137A
CENTER_NAME    = EARTH
REF_FRAME      = TEME
TIME_SYSTEM    = UTC
MEAN_ELEMENT_THEORY = SGP/SGP4

EPOCH          = 2025-11-06T13:05:44.915136
MEAN_MOTION    = 15.09769584
ECCENTRICITY   = .0008239
INCLINATION    = 31.0035
RA_OF_ASC_NODE = 359.1343
ARG_OF_PERICENTER = 239.1298
MEAN_ANOMALY   = 120.8530

EPHEMERIS_TYPE = 0
CLASSIFICATION_TYPE = U
NORAD_CAT_ID   = 57800
ELEMENT_SET_NO = 999
REV_AT_EPOCH   = 11915
BSTAR          = .53231E-3
MEAN_MOTION_DOT = .8911E-4
MEAN_MOTION_DDOT = 0

