COSMOS 2550             
1 48865U 21056A   25310.86188935  .00000124  00000+0  95945-5 0  9997
2 48865  67.1419  52.5114 0008316 271.3921  88.6281 15.33830826244622
CZ-2C R/B               
1 52794U 22058K   25310.77018602  .00039084  00000+0  75564-3 0  9999
2 52794  50.1923 226.6440 0049560  48.7546 311.7676 15.45984816191060
GSLV R/B                
1 54149U 22138AN  25310.66796297  .00005288  00000+0  46958-3 0  9999
2 54149  87.3859 207.5449 0019315 235.3420 124.5991 14.95831105165532
XRISM                   
1 57800U 23137A   25310.54565874  .00008911  00000+0  53231-3 0  9996
2 57800  31.0035 359.1343 0008239 239.1298 120.8530 15.09769584119158
